[{"OBJECT_NAME":"GAOFEN-3 03","OBJECT_ID":"2022-035A","EPOCH":"2026-03-10T00:27:29.452896","MEAN_MOTION":14.42227519,"ECCENTRICITY":0.00014785,"INCLINATION":98.411,"RA_OF_ASC_NODE":79.0226,"ARG_OF_PERICENTER":98.2358,"MEAN_ANOMALY":261.8999,"EPHEMERIS_TYPE":0,"CLASSIFICATION_TYPE":"U","NORAD_CAT_ID":52200,"ELEMENT_SET_NO":999,"REV_AT_EPOCH":20655,"BSTAR":-2.1725867e-5,"MEAN_MOTION_DOT":-1.15e-6,"MEAN_MOTION_DDOT":0},{"OBJECT_NAME":"CZ-6A DEB","OBJECT_ID":"2024-140ZH","EPOCH":"2026-03-09T13:53:58.814016","MEAN_MOTION":14.63452194,"ECCENTRICITY":0.0111186,"INCLINATION":89.0351,"RA_OF_ASC_NODE":284.8261,"ARG_OF_PERICENTER":230.0576,"MEAN_ANOMALY":129.0831,"EPHEMERIS_TYPE":0,"CLASSIFICATION_TYPE":"U","NORAD_CAT_ID":61451,"ELEMENT_SET_NO":999,"REV_AT_EPOCH":7868,"BSTAR":0.0010856,"MEAN_MOTION_DOT":6.164e-5,"MEAN_MOTION_DDOT":0}]
